NORAD_CAT_ID,OBJECT_NAME,OBJECT_TYPE,EPOCH,MEAN_MOTION,ECCENTRICITY,INCLINATION,RA_OF_ASC_NODE,ARG_OF_PERICENTER,MEAN_ANOMALY,BSTAR,MEAN_MOTION_DOT,MEAN_MOTION_DDOT,TLE_LINE0,TLE_LINE1,TLE_LINE2,SEMIMAJOR_AXIS,PERIOD,APOGEE,PERIGEE,DECAYED
49725.0,STARLINK-3218,PAYLOAD,2024-08-16 03:35:08,15.08837108,0.0001334,53.2167,190.4804,94.1346,265.9799,0.00016445,2.33e-05,0.0,0 STARLINK-3218,1 49725U 21115B   24229.14940374  .00002330  00000-0  16445-3 0  9999,2 49725  53.2167 190.4804 0001334  94.1346 265.9799 15.08837108150517,6917.889,95.438,540.677,538.831,0.0
49725.0,STARLINK-3218,PAYLOAD,2024-08-16 05:10:31,15.08837953,0.0001336,53.2167,190.183,94.2463,265.8682,0.00017164,2.445e-05,0.0,0 STARLINK-3218,1 49725U 21115B   24229.21564346  .00002445  00000-0  17164-3 0  9994,2 49725  53.2167 190.1830 0001336  94.2463 265.8682 15.08837953149411,6917.887,95.438,540.676,538.827,0.0
49725.0,STARLINK-3218,PAYLOAD,2024-08-17 03:25:55,15.08843185,0.0001274,53.2161,186.0232,106.4692,253.644,7.3831e-05,8.87e-06,0.0,0 STARLINK-3218,1 49725U 21115B   24230.14300356  .00000887  00000-0  73831-4 0  9999,2 49725  53.2161 186.0232 0001274 106.4692 253.6440 15.08843185149552,6917.871,95.437,540.617,538.854,0.0
49725.0,STARLINK-3218,PAYLOAD,2024-08-17 20:55:10,15.08842864,0.0001391,53.2167,182.7501,89.3409,270.7742,3.3486e-05,2.45e-06,0.0,0 STARLINK-3218,1 49725U 21115B   24230.87164463  .00000245  00000-0  33486-4 0  9996,2 49725  53.2167 182.7501 0001391  89.3409 270.7742 15.08842864150779,6917.872,95.437,540.699,538.774,0.0
49725.0,STARLINK-3218,PAYLOAD,2024-08-18 01:41:19,15.0884221,0.0001386,53.2167,181.8569,90.1179,269.9972,2.4089e-05,9.5e-07,0.0,0 STARLINK-3218,1 49725U 21115B   24231.07036480  .00000095  00000-0  24089-4 0  9998,2 49725  53.2167 181.8569 0001386  90.1179 269.9972 15.08842210149690,6917.874,95.437,540.697,538.78,0.0
49725.0,STARLINK-3218,PAYLOAD,2024-08-18 20:45:57,15.08835692,0.0001574,53.217,178.2858,107.1808,252.9356,3.6431e-05,2.92e-06,0.0,0 STARLINK-3218,1 49725U 21115B   24231.86524574  .00000292  00000-0  36431-4 0  9994,2 49725  53.2170 178.2858 0001574 107.1808 252.9356 15.08835692149810,6917.894,95.438,540.847,538.67,0.0
49725.0,STARLINK-3218,PAYLOAD,2024-08-19 03:07:30,15.08832807,0.0001483,53.2168,177.0961,105.9429,254.1726,4.7884e-06,-2.12e-06,0.0,0 STARLINK-3218,1 49725U 21115B   24232.13020904 -.00000212  00000-0  47884-5 0  9991,2 49725  53.2168 177.0961 0001483 105.9429 254.1726 15.08832807150961,6917.902,95.438,540.793,538.741,0.0
49725.0,STARLINK-3218,PAYLOAD,2024-08-19 06:18:16,15.08832524,0.0001483,53.2169,176.5016,105.2043,254.9113,3.4961e-07,-2.82e-06,0.0,0 STARLINK-3218,1 49725U 21115B   24232.26268977 -.00000282  00000-0  34961-6 0  9999,2 49725  53.2169 176.5016 0001483 105.2043 254.9113 15.08832524149874,6917.903,95.438,540.794,538.742,0.0
49725.0,STARLINK-3218,PAYLOAD,2024-08-20 02:58:16,15.08841546,0.0001339,53.2166,172.6365,86.0562,274.0583,2.7909e-05,1.56e-06,0.0,0 STARLINK-3218,1 49725U 21115B   24233.12380540  .00000156  00000-0  27909-4 0  9997,2 49725  53.2166 172.6365 0001339  86.0562 274.0583 15.08841546151115,6917.876,95.437,540.667,538.814,0.0
49725.0,STARLINK-3218,PAYLOAD,2024-08-20 06:09:03,15.08840966,0.0001356,53.2167,172.0419,86.3989,273.7158,2.3203e-05,8.1e-07,0.0,0 STARLINK-3218,1 49725U 21115B   24233.25628600  .00000081  00000-0  23203-4 0  9993,2 49725  53.2167 172.0419 0001356  86.3989 273.7158 15.08840966150023,6917.877,95.437,540.681,538.804,0.0
49725.0,STARLINK-3218,PAYLOAD,2024-08-21 01:13:41,15.08833357,0.0001279,53.2167,168.4739,85.9952,274.1186,5.4025e-05,5.72e-06,0.0,0 STARLINK-3218,1 49725U 21115B   24234.05117111  .00000572  00000-0  54025-4 0  9993,2 49725  53.2167 168.4739 0001279  85.9952 274.1186 15.08833357151254,6917.901,95.438,540.65,538.881,0.0
49725.0,STARLINK-3218,PAYLOAD,2024-08-21 05:59:50,15.088342,0.0001285,53.2168,167.5819,85.6926,274.4213,5.7915e-05,6.34e-06,0.0,0 STARLINK-3218,1 49725U 21115B   24234.24989141  .00000634  00000-0  57915-4 0  9994,2 49725  53.2168 167.5819 0001285  85.6926 274.4213 15.08834200150171,6917.898,95.438,540.652,538.874,0.0
49725.0,STARLINK-3218,PAYLOAD,2024-08-22 02:39:51,15.08837431,0.0001249,53.2162,163.7161,86.1003,274.0132,3.3269e-05,2.42e-06,0.0,0 STARLINK-3218,1 49725U 21115B   24235.11101303  .00000242  00000-0  33269-4 0  9998,2 49725  53.2162 163.7161 0001249  86.1003 274.0132 15.08837431151418,6917.888,95.438,540.617,538.889,0.0
